let sat = [{"OBJECT_NAME":"STARS (KUKAI)","OBJECT_ID":"2009-002G","EPOCH":"2022-09-07T15:51:12.593952","MEAN_MOTION":14.80161213,"ECCENTRICITY":0.0010641,"INCLINATION":98.1574,"RA_OF_ASC_NODE":144.0206,"ARG_OF_PERICENTER":354.9428,"MEAN_ANOMALY":5.1674,"EPHEMERIS_TYPE":0,"CLASSIFICATION_TYPE":"U","NORAD_CAT_ID":33498,"ELEMENT_SET_NO":999,"REV_AT_EPOCH":73359,"BSTAR":0.00016941,"MEAN_MOTION_DOT":1.232e-5,"MEAN_MOTION_DDOT":0},{"OBJECT_NAME":"KKS-1 (KISEKI)","OBJECT_ID":"2009-002H","EPOCH":"2022-09-07T19:24:48.003552","MEAN_MOTION":14.76107698,"ECCENTRICITY":0.0010196,"INCLINATION":98.205,"RA_OF_ASC_NODE":134.1744,"ARG_OF_PERICENTER":56.3837,"MEAN_ANOMALY":303.8344,"EPHEMERIS_TYPE":0,"CLASSIFICATION_TYPE":"U","NORAD_CAT_ID":33499,"ELEMENT_SET_NO":999,"REV_AT_EPOCH":73239,"BSTAR":0.00010139,"MEAN_MOTION_DOT":6.47e-6,"MEAN_MOTION_DDOT":0},{"OBJECT_NAME":"EXPRESS-AM44","OBJECT_ID":"2009-007A","EPOCH":"2022-09-07T05:59:42.765792","MEAN_MOTION":1.00277744,"ECCENTRICITY":0.0001255,"INCLINATION":0.0571,"RA_OF_ASC_NODE":298.8313,"ARG_OF_PERICENTER":308.9851,"MEAN_ANOMALY":177.4285,"EPHEMERIS_TYPE":0,"CLASSIFICATION_TYPE":"U","NORAD_CAT_ID":33595,"ELEMENT_SET_NO":999,"REV_AT_EPOCH":4973,"BSTAR":0,"MEAN_MOTION_DOT":-1.06e-6,"MEAN_MOTION_DDOT":0},{"OBJECT_NAME":"NSS-9","OBJECT_ID":"2009-008A","EPOCH":"2022-09-07T18:23:39.862176","MEAN_MOTION":1.00271283,"ECCENTRICITY":0.0002319,"INCLINATION":0.0538,"RA_OF_ASC_NODE":304.7833,"ARG_OF_PERICENTER":212.934,"MEAN_ANOMALY":288.0714,"EPHEMERIS_TYPE":0,"CLASSIFICATION_TYPE":"U","NORAD_CAT_ID":33749,"ELEMENT_SET_NO":999,"REV_AT_EPOCH":4970,"BSTAR":0,"MEAN_MOTION_DOT":5.2e-7,"MEAN_MOTION_DDOT":0},{"OBJECT_NAME":"EUTELSAT 33E","OBJECT_ID":"2009-008B","EPOCH":"2022-09-07T20:14:09.998592","MEAN_MOTION":1.00271695,"ECCENTRICITY":0.0004093,"INCLINATION":0.0579,"RA_OF_ASC_NODE":16.5698,"ARG_OF_PERICENTER":147.1327,"MEAN_ANOMALY":159.8014,"EPHEMERIS_TYPE":0,"CLASSIFICATION_TYPE":"U","NORAD_CAT_ID":33750,"ELEMENT_SET_NO":999,"REV_AT_EPOCH":4962,"BSTAR":0,"MEAN_MOTION_DOT":1.36e-6,"MEAN_MOTION_DDOT":0},{"OBJECT_NAME":"SPIRALE A","OBJECT_ID":"2009-008C","EPOCH":"2022-09-07T18:19:22.305504","MEAN_MOTION":4.58861774,"ECCENTRICITY":0.544236,"INCLINATION":1.9779,"RA_OF_ASC_NODE":177.7625,"ARG_OF_PERICENTER":40.5448,"MEAN_ANOMALY":349.2554,"EPHEMERIS_TYPE":0,"CLASSIFICATION_TYPE":"U","NORAD_CAT_ID":33751,"ELEMENT_SET_NO":999,"REV_AT_EPOCH":19859,"BSTAR":0.00061375,"MEAN_MOTION_DOT":1.28e-6,"MEAN_MOTION_DDOT":0},{"OBJECT_NAME":"SPIRALE B","OBJECT_ID":"2009-008D","EPOCH":"2022-09-06T22:30:49.188384","MEAN_MOTION":2.82877267,"ECCENTRICITY":0.6859418,"INCLINATION":2.1781,"RA_OF_ASC_NODE":69.5084,"ARG_OF_PERICENTER":241.0844,"MEAN_ANOMALY":35.5358,"EPHEMERIS_TYPE":0,"CLASSIFICATION_TYPE":"U","NORAD_CAT_ID":33752,"ELEMENT_SET_NO":999,"REV_AT_EPOCH":12738,"BSTAR":0.0012384,"MEAN_MOTION_DOT":5.471e-5,"MEAN_MOTION_DDOT":0},{"OBJECT_NAME":"TELSTAR 11N","OBJECT_ID":"2009-009A","EPOCH":"2022-09-07T19:03:39.599712","MEAN_MOTION":1.00268736,"ECCENTRICITY":0.0002445,"INCLINATION":0.0273,"RA_OF_ASC_NODE":145.6674,"ARG_OF_PERICENTER":6.4883,"MEAN_ANOMALY":83.0437,"EPHEMERIS_TYPE":0,"CLASSIFICATION_TYPE":"U","NORAD_CAT_ID":34111,"ELEMENT_SET_NO":999,"REV_AT_EPOCH":3241,"BSTAR":0,"MEAN_MOTION_DOT":-2.71e-6,"MEAN_MOTION_DDOT":0},{"OBJECT_NAME":"NAVSTAR 63 (USA 203)","OBJECT_ID":"2009-014A","EPOCH":"2022-09-06T11:41:42.512640","MEAN_MOTION":2.00553307,"ECCENTRICITY":0.0120795,"INCLINATION":55.0094,"RA_OF_ASC_NODE":266.0616,"ARG_OF_PERICENTER":55.8655,"MEAN_ANOMALY":305.7837,"EPHEMERIS_TYPE":0,"CLASSIFICATION_TYPE":"U","NORAD_CAT_ID":34661,"ELEMENT_SET_NO":999,"REV_AT_EPOCH":9861,"BSTAR":0,"MEAN_MOTION_DOT":5.4e-7,"MEAN_MOTION_DDOT":0},{"OBJECT_NAME":"EUTELSAT 10A","OBJECT_ID":"2009-016A","EPOCH":"2022-09-07T18:26:42.523008","MEAN_MOTION":1.00272123,"ECCENTRICITY":0.0005495,"INCLINATION":0.0518,"RA_OF_ASC_NODE":352.756,"ARG_OF_PERICENTER":173.7335,"MEAN_ANOMALY":106.9866,"EPHEMERIS_TYPE":0,"CLASSIFICATION_TYPE":"U","NORAD_CAT_ID":34710,"ELEMENT_SET_NO":999,"REV_AT_EPOCH":2742,"BSTAR":0,"MEAN_MOTION_DOT":4.8e-7,"MEAN_MOTION_DDOT":0},{"OBJECT_NAME":"WGS F2 (USA 204)","OBJECT_ID":"2009-017A","EPOCH":"2022-09-07T10:38:42.600768","MEAN_MOTION":1.00270065,"ECCENTRICITY":7.92e-5,"INCLINATION":0.0282,"RA_OF_ASC_NODE":138.4159,"ARG_OF_PERICENTER":52.6945,"MEAN_ANOMALY":12.5502,"EPHEMERIS_TYPE":0,"CLASSIFICATION_TYPE":"U","NORAD_CAT_ID":34713,"ELEMENT_SET_NO":999,"REV_AT_EPOCH":3179,"BSTAR":0,"MEAN_MOTION_DOT":4.9e-7,"MEAN_MOTION_DDOT":0},{"OBJECT_NAME":"RISAT 2","OBJECT_ID":"2009-019A","EPOCH":"2022-09-08T02:31:11.696736","MEAN_MOTION":15.70371433,"ECCENTRICITY":0.0021292,"INCLINATION":41.209,"RA_OF_ASC_NODE":117.2492,"ARG_OF_PERICENTER":284.9228,"MEAN_ANOMALY":210.2975,"EPHEMERIS_TYPE":0,"CLASSIFICATION_TYPE":"U","NORAD_CAT_ID":34807,"ELEMENT_SET_NO":999,"REV_AT_EPOCH":75274,"BSTAR":0.0010073,"MEAN_MOTION_DOT":0.00130204,"MEAN_MOTION_DDOT":0},{"OBJECT_NAME":"YAOGAN 6","OBJECT_ID":"2009-021A","EPOCH":"2022-09-08T03:22:52.947840","MEAN_MOTION":15.30131343,"ECCENTRICITY":0.0025927,"INCLINATION":97.0892,"RA_OF_ASC_NODE":227.4915,"ARG_OF_PERICENTER":6.5088,"MEAN_ANOMALY":353.6485,"EPHEMERIS_TYPE":0,"CLASSIFICATION_TYPE":"U","NORAD_CAT_ID":34839,"ELEMENT_SET_NO":999,"REV_AT_EPOCH":74389,"BSTAR":0.00016359,"MEAN_MOTION_DOT":4.744e-5,"MEAN_MOTION_DDOT":0},{"OBJECT_NAME":"SES-7 (PROTOSTAR 2)","OBJECT_ID":"2009-027A","EPOCH":"2022-09-07T21:07:22.083744","MEAN_MOTION":1.00270633,"ECCENTRICITY":0.0001569,"INCLINATION":0.0164,"RA_OF_ASC_NODE":106.1009,"ARG_OF_PERICENTER":103.4933,"MEAN_ANOMALY":202.4462,"EPHEMERIS_TYPE":0,"CLASSIFICATION_TYPE":"U","NORAD_CAT_ID":34941,"ELEMENT_SET_NO":999,"REV_AT_EPOCH":4879,"BSTAR":0,"MEAN_MOTION_DOT":-3.65e-6,"MEAN_MOTION_DDOT":0},{"OBJECT_NAME":"MEASAT-3A","OBJECT_ID":"2009-032A","EPOCH":"2022-09-07T02:27:30.542976","MEAN_MOTION":1.0026962,"ECCENTRICITY":0.0003483,"INCLINATION":0.0378,"RA_OF_ASC_NODE":214.2074,"ARG_OF_PERICENTER":342.4321,"MEAN_ANOMALY":277.8922,"EPHEMERIS_TYPE":0,"CLASSIFICATION_TYPE":"U","NORAD_CAT_ID":35362,"ELEMENT_SET_NO":999,"REV_AT_EPOCH":4842,"BSTAR":0,"MEAN_MOTION_DOT":-2.59e-6,"MEAN_MOTION_DDOT":0}]