STARS (KUKAI)           
1 33498U 09002G   22250.66056243  .00001232  00000+0  16941-3 0  9992
2 33498  98.1574 144.0206 0010641 354.9428   5.1674 14.80161213733594
KKS-1 (KISEKI)          
1 33499U 09002H   22250.80888893  .00000647  00000+0  10139-3 0  9995
2 33499  98.2050 134.1744 0010196  56.3837 303.8344 14.76107698732395
EXPRESS-AM44            
1 33595U 09007A   22250.24980053 -.00000106  00000+0  00000+0 0  9999
2 33595   0.0571 298.8313 0001255 308.9851 177.4285  1.00277744 49730
NSS-9                   
1 33749U 09008A   22250.76643359  .00000052  00000+0  00000+0 0  9992
2 33749   0.0538 304.7833 0002319 212.9340 288.0714  1.00271283 49702
EUTELSAT 33E            
1 33750U 09008B   22250.84317128  .00000136  00000+0  00000+0 0  9998
2 33750   0.0579  16.5698 0004093 147.1327 159.8014  1.00271695 49627
SPIRALE A               
1 33751U 09008C   22250.76345261  .00000128  00000+0  61375-3 0  9996
2 33751   1.9779 177.7625 5442360  40.5448 349.2554  4.58861774198592
SPIRALE B               
1 33752U 09008D   22249.93806931  .00005471  00000+0  12384-2 0  9991
2 33752   2.1781  69.5084 6859418 241.0844  35.5358  2.82877267127386
TELSTAR 11N             
1 34111U 09009A   22250.79420833 -.00000271  00000+0  00000+0 0  9994
2 34111   0.0273 145.6674 0002445   6.4883  83.0437  1.00268736 32419
NAVSTAR 63 (USA 203)    
1 34661U 09014A   22249.48729760  .00000054  00000+0  00000+0 0  9993
2 34661  55.0094 266.0616 0120795  55.8655 305.7837  2.00553307 98612
EUTELSAT 10A            
1 34710U 09016A   22250.76854772  .00000048  00000+0  00000+0 0  9998
2 34710   0.0518 352.7560 0005495 173.7335 106.9866  1.00272123 27420
WGS F2 (USA 204)        
1 34713U 09017A   22250.44354862  .00000049  00000+0  00000+0 0  9993
2 34713   0.0282 138.4159 0000792  52.6945  12.5502  1.00270065 31798
RISAT 2                 
1 34807U 09019A   22251.10499649  .00130204  00000+0  10073-2 0  9997
2 34807  41.2090 117.2492 0021292 284.9228 210.2975 15.70371433752742
YAOGAN 6                
1 34839U 09021A   22251.14089060  .00004744  00000+0  16359-3 0  9994
2 34839  97.0892 227.4915 0025927   6.5088 353.6485 15.30131343743895
SES-7 (PROTOSTAR 2)     
1 34941U 09027A   22250.88011671 -.00000365  00000+0  00000+0 0  9995
2 34941   0.0164 106.1009 0001569 103.4933 202.4462  1.00270633 48795
MEASAT-3A               
1 35362U 09032A   22250.10243684 -.00000259  00000+0  00000+0 0  9997
2 35362   0.0378 214.2074 0003483 342.4321 277.8922  1.00269620 48427
